[
    {
        "Altitude(m)": 571820.9986149855,
        "Argument of Periapsis(deg)": 0.033114955553567506,
        "Eccentricity": 0.0,
        "Inclination(deg)": 53.0,
        "Latitude(deg)": -53.089452535299586,
        "Longitude(deg)": -115.16310498965981,
        "Mean Anomaly(deg)": 272.27626433788794,
        "RAAN(deg)": 74.95071684264009,
        "Satellite Name": "Starlink Shell 1 343",
        "Satellite Number": 343,
        "Semi-Major Axis(m)": 6931778.249405717,
        "Time(s)": 950
    },
    {
        "Altitude(m)": 571806.3818838485,
        "Argument of Periapsis(deg)": 0.03346353403307874,
        "Eccentricity": 0.0,
        "Inclination(deg)": 53.0,
        "Latitude(deg)": -53.051669447358385,
        "Longitude(deg)": -114.16947328387383,
        "Mean Anomaly(deg)": 272.90309554144466,
        "RAAN(deg)": 74.95019807256261,
        "Satellite Name": "Starlink Shell 1 343",
        "Satellite Number": 343,
        "Semi-Major Axis(m)": 6931778.249405717,
        "Time(s)": 960
    },
    {
        "Altitude(m)": 571788.2992770358,
        "Argument of Periapsis(deg)": 0.03381211251258998,
        "Eccentricity": 0.0,
        "Inclination(deg)": 53.0,
        "Latitude(deg)": -53.0049052920855,
        "Longitude(deg)": -113.17786148074991,
        "Mean Anomaly(deg)": 273.5299267450014,
        "RAAN(deg)": 74.94967930248514,
        "Satellite Name": "Starlink Shell 1 343",
        "Satellite Number": 343,
        "Semi-Major Axis(m)": 6931778.249405717,
        "Time(s)": 970
    },
    {
        "Altitude(m)": 571766.757990795,
        "Argument of Periapsis(deg)": 0.034160690992101214,
        "Eccentricity": 0.0,
        "Inclination(deg)": 53.0,
        "Latitude(deg)": -52.9491943249925,
        "Longitude(deg)": -112.18868861784074,
        "Mean Anomaly(deg)": 274.1567579485581,
        "RAAN(deg)": 74.94916053240767,
        "Satellite Name": "Starlink Shell 1 343",
        "Satellite Number": 343,
        "Semi-Major Axis(m)": 6931778.249405717,
        "Time(s)": 980
    },
    {
        "Altitude(m)": 571741.7666013917,
        "Argument of Periapsis(deg)": 0.034509269471612446,
        "Eccentricity": 0.0,
        "Inclination(deg)": 53.0,
        "Latitude(deg)": -52.88457713155215,
        "Longitude(deg)": -111.20236609886678,
        "Mean Anomaly(deg)": 274.7835891521148,
        "RAAN(deg)": 74.9486417623302,
        "Satellite Name": "Starlink Shell 1 343",
        "Satellite Number": 343,
        "Semi-Major Axis(m)": 6931778.249405717,
        "Time(s)": 990
    }
]